ONEWEB-0597             
1 54663U 22166X   25138.52975940  .00000106  00000+0  22451-3 0  9994
2 54663  87.9251 322.6980 0001791  83.8345 276.2993 13.21824112119405
ONEWEB-0600             
1 54664U 22166Y   25138.51240964  .00000009  00000+0 -10048-4 0  9998
2 54664  87.9230 322.7098 0001723  86.3856 273.7475 13.21826589119377
ONEWEB-0601             
1 54665U 22166Z   25138.50451045  .00000013  00000+0  81070-6 0  9991
2 54665  87.9251 322.7131 0001987  80.0555 280.0803 13.21823770119564
ONEWEB-0602             
1 54666U 22166AA  25138.54552059 -.00000015  00000+0 -67958-4 0  9994
2 54666  87.9249 322.7058 0001729  83.2978 276.8353 13.21827060119411
ONEWEB-0603             
1 54667U 22166AB  25138.55023946 -.00000248  00000+0 -63219-3 0  9997
2 54667  87.9225 322.6577 0001868  81.3511 278.7834 13.21825206119344
ONEWEB-0604             
1 54668U 22166AC  25138.53762478 -.00000158  00000+0 -41520-3 0  9997
2 54668  87.9243 322.6700 0001700  83.0757 277.0570 13.21824277119772
ONEWEB-0605             
1 54669U 22166AD  25138.53131762 -.00000153  00000+0 -40101-3 0  9993
2 54669  87.9243 322.7023 0002342  77.6142 282.5254 13.21824866119372
ONEWEB-0606             
1 54670U 22166AE  25138.55339436 -.00000183  00000+0 -47568-3 0  9992
2 54670  87.9249 322.7067 0001807  96.4199 263.7141 13.21824824119431
